GSAT-10                 
1 38779U 12051B   23348.51981649 -.00000144  00000+0  00000+0 0  9994
2 38779   0.0170  17.5818 0004675 247.9232  87.5646  1.00270352 40937
INTELSAT 23 (IS-23)     
1 38867U 12057A   23348.49266539 -.00000263  00000+0  00000+0 0  9991
2 38867   0.0094 343.9573 0001052   5.6513 217.6688  1.00268406 40761
BEIDOU-2 G6             
1 38953U 12059A   23348.51999053 -.00000156  00000+0  00000+0 0  9997
2 38953   2.0856  81.5939 0008189 290.3331 342.1766  1.00273481 40721
LUCH-5B                 
1 38977U 12061A   23348.47688222 -.00000121  00000+0  00000+0 0  9996
2 38977   8.4798  58.2985 0004120 161.3975  18.5114  1.00271923 40434
YAMAL 300K              
1 38978U 12061B   23348.55188380  .00000092  00000+0  00000+0 0  9992
2 38978   0.0134 343.9897 0001387  92.9491  27.6479  1.00274540 40452
STAR ONE C3             
1 38991U 12062A   23348.48840127 -.00000227  00000+0  00000+0 0  9995
2 38991   0.0706  91.5988 0001827 174.4134 277.7359  1.00268850 40573
EUTELSAT 21B            
1 38992U 12062B   23348.29277411  .00000152  00000+0  00000+0 0  9991
2 38992   0.0666 354.7672 0003003 273.1626 301.8053  1.00274388 40645
ECHOSTAR 16             
1 39008U 12065A   23348.41947925 -.00000260  00000+0  00000+0 0  9992
2 39008   0.0184  33.8185 0002145 228.8999 269.6396  1.00270203 40440
CHINASAT 12 (ZX 12)     
1 39017U 12067A   23348.52077374 -.00000186  00000+0  00000+0 0  9995
2 39017   0.0181  47.5143 0003231 217.2734  93.1223  1.00269319 40321
EUTELSAT 70B            
1 39020U 12069A   23348.51737986 -.00000023  00000+0  00000+0 0  9992
2 39020   0.0622 354.9910 0004778 254.8688  89.8269  1.00271136 40326
YAMAL 402               
1 39022U 12070A   23348.51424705  .00000106  00000+0  00000+0 0  9999
2 39022   0.0150  29.5309 0004321 234.3100  59.1306  1.00272436 40211
SKYNET 5D               
1 39034U 12075A   23348.51381192  .00000120  00000+0  00000+0 0  9995
2 39034   0.0697 347.1061 0003866 267.1584  66.4026  1.00271375 39979
MEXSAT 3                
1 39035U 12075B   23348.55210194 -.00000004  00000+0  00000+0 0  9995
2 39035   0.0139 350.1960 0001767 270.5689 266.1594  1.00271129 40007
TDRS 11                 
1 39070U 13004A   23348.54026683  .00000098  00000+0  00000+0 0  9996
2 39070   2.6946   4.8231 0002072  48.5626  49.7429  1.00266461 37515
AMAZONAS 3              
1 39078U 13006A   23348.36438238 -.00000260  00000+0  00000+0 0  9991
2 39078   0.0406 235.7581 0004456   3.3419 273.8679  1.00269294 35721
AZERSPACE 1             
1 39079U 13006B   23348.51250659  .00000154  00000+0  00000+0 0  9999
2 39079   0.0154 357.1075 0000928 278.7182  37.6085  1.00272912 39625
SBIRS GEO-2 (USA 241)   
1 39120U 13011A   23348.49579822 -.00000238  00000+0  00000+0 0  9999
2 39120   2.6493  43.3235 0002467 218.2650 321.8051  1.00271159 39350
EUTELSAT 117 WEST A     
1 39122U 13012A   23348.55175384  .00000008  00000+0  00000+0 0  9998
2 39122   0.0139 335.4030 0002740 288.0644 261.3521  1.00273334 39257
ANIK G1                 
1 39127U 13014A   23348.55358132 -.00000053  00000+0  00000+0 0  9990
2 39127   0.0174 349.6228 0002739 276.1675 269.1651  1.00270677 39074
CHINASAT 11 (ZX 11)     
1 39157U 13020A   23348.60141113 -.00000270  00000+0  00000+0 0  9996
2 39157   0.0185 290.6153 0002858   0.2473 106.5935  1.00271567 38713
EUTELSAT 7B             
1 39163U 13022A   23348.46577060  .00000069  00000+0  00000+0 0  9998
2 39163   0.0681  14.0715 0004331 307.4838 296.0000  1.00271643 38788
WGS F5 (USA 243)        
1 39168U 13024A   23348.49354837 -.00000263  00000+0  00000+0 0  9990
2 39168   0.0184  10.6087 0000129 120.2897  77.1823  1.00268599 37980
SES-6                   
1 39172U 13026A   23348.49527608 -.00000240  00000+0  00000+0 0  9990
2 39172   0.0185   2.6954 0002077 255.8857 322.1393  1.00270824 38547
IRNSS-1A                
1 39199U 13034A   23347.84007925  .00000075  00000+0  00000+0 0  9996
2 39199  33.6543  77.2048 0021512 184.7486 177.6838  1.00271680 38460
MUOS-2                  
1 39206U 13036A   23348.53957066  .00000084  00000+0  00000+0 0  9994
2 39206   3.3293  37.5222 0057511 182.5660 240.0872  1.00273497 38018
ALPHASAT                
1 39215U 13038A   23348.50824247  .00000153  00000+0  00000+0 0  9994
2 39215   2.8610   9.1127 0001968 237.1729  44.4379  1.00270072 34832
INSAT-3D                
1 39216U 13038B   23348.51964244 -.00000135  00000+0  00000+0 0  9999
2 39216   0.0173 338.3383 0002560 281.7849  91.9558  1.00270290 37892
WGS F6 (USA 244)        
1 39222U 13041A   23348.47639213  .00000111  00000+0  00000+0 0  9993
2 39222   0.0176  14.5825 0000301 160.2918 304.3011  1.00268424 36873
ES'HAIL 1               
1 39233U 13044A   23348.52827014  .00000164  00000+0  00000+0 0  9990
2 39233   0.0539  24.2056 0001654 241.1971  33.1529  1.00273052 37440
GSAT-7                  
1 39234U 13044B   23348.51807604 -.00000056  00000+0  00000+0 0  9994
2 39234   0.0716  96.1267 0009597 169.6871  77.6281  1.00271198 36140
AMOS-4                  
1 39237U 13045A   23348.51624856  .00000028  00000+0  00000+0 0  9992
2 39237   0.0082  54.2472 0002635 226.5589  52.9553  1.00271365 37771
AEHF-3 (USA 246)        
1 39256U 13050A   23348.54400882  .00000153  00000+0  00000+0 0  9992
2 39256   3.0150  73.6379 0053821 177.7432 232.3505  1.00269048 36493
ASTRA 2E                
1 39285U 13056A   23348.52271581  .00000171  00000+0  00000+0 0  9990
2 39285   0.0554   4.0105 0002783 272.6643  22.9098  1.00272294 37257
FM-6                    
1 39360U 13058A   23348.48022115  .00000004  00000+0  00000+0 0  9993
2 39360   0.0019   4.9967 0000269 200.9749 293.6413  1.00273748 36881
RADUGA-1M 3             
1 39375U 13062A   23348.51024399  .00000173  00000+0  00000+0 0  9991
2 39375   3.6221  83.4825 0001416   3.2333 214.9132  1.00273085 36927
SES-8                   
1 39460U 13071A   23348.52225312 -.00000249  00000+0  00000+0 0  9990
2 39460   0.0282 278.1128 0000417 328.2630 119.5730  1.00270354 35243
INMARSAT 5-F1           
1 39476U 13073A   23348.44419372  .00000049  00000+0  00000+0 0  9998
2 39476   0.0171 350.0361 0000130 182.1583 133.1797  1.00268871 36407
TKSAT-1 (TUPAC KATARI)  
1 39481U 13075A   23348.41434491 -.00000173  00000+0  00000+0 0  9991
2 39481   0.0384 213.3454 0002587  58.4560 233.0045  1.00272146 36418
EXPRESS-AM5             
1 39487U 13077A   23348.45959674 -.00000259  00000+0  00000+0 0  9993
2 39487   0.0191 285.5337 0001804  47.5773  55.2615  1.00269024 37179
GSAT-14                 
1 39498U 14001A   23348.51807604 -.00000056  00000+0  00000+0 0  9990
2 39498   0.0134  40.6395 0006534 224.3158  78.4845  1.00271197 36208
THAICOM 6               
1 39500U 14002A   23348.44732654 -.00000100  00000+0  00000+0 0  9999
2 39500   0.0599 125.9533 0001366  86.5651 109.9136  1.00269608 36276
TDRS 12                 
1 39504U 14004A   23348.42348230 -.00000249  00000+0  00000+0 0  9990
2 39504   3.5641 358.8896 0004420 224.3167 330.8184  1.00280983 35099
ABS-2                   
1 39508U 14006A   23348.51825008 -.00000065  00000+0  00000+0 0  9995
2 39508   0.0416  77.7404 0003264 176.1157  90.5709  1.00271204 36095
ATHENA-FIDUS            
1 39509U 14006B   23348.51085315  .00000175  00000+0  00000+0 0  9996
2 39509   0.0140 344.8196 0001077 277.5212  42.2884  1.00273138 35897
TURKSAT 4A              
1 39522U 14007A   23348.51172338  .00000167  00000+0  00000+0 0  9995
2 39522   0.0427 267.4433 0004789 356.3883  45.3205  1.00270531 35791
EXPRESS-AT1             
1 39612U 14010A   23348.51450810  .00000099  00000+0  00000+0 0  9997
2 39612   0.0184 328.8166 0000561 153.1230 202.2198  1.00271003 35632
EXPRESS-AT2             
1 39613U 14010B   23348.59311867 -.00000261  00000+0  00000+0 0  9996
2 39613   0.0205   2.4322 0001665 324.7651 109.1816  1.00269093 35318
AMAZONAS 4A             
1 39616U 14011A   23348.48857532 -.00000231  00000+0  00000+0 0  9999
2 39616   0.0469 232.3246 0004124  19.8478 292.6353  1.00270616 35524
ASTRA 5B                
1 39617U 14011B   23348.50798140  .00000158  00000+0  00000+0 0  9999
2 39617   0.0594 314.6697 0004077 305.2185  29.4379  1.00271265 35482
IRNSS-1B                
1 39635U 14017A   23347.84007925  .00000134  00000+0  00000+0 0  9999
2 39635  28.5037 255.9700 0017452 181.6844   2.0550  1.00274947 35590
LUCH-5V                 
1 39727U 14023A   23348.52216611 -.00000250  00000+0  00000+0 0  9998
2 39727   2.8327  76.9425 0003854 201.7500  86.9716  1.00271266 35178
KAZSAT-3                
1 39728U 14023B   23348.44332350  .00000082  00000+0  00000+0 0  9991
2 39728   0.0250 265.2061 0000353  93.4198 302.3334  1.00271042 33264
EUTELSAT 3B             
1 39773U 14030A   23348.46577060  .00000041  00000+0  00000+0 0  9995
2 39773   0.0612   2.6944 0005736 225.1367  25.8349  1.00271221 34882
ASIASAT 8 (AMOS-7)      
1 40107U 14046A   23348.34007911 -.00000012  00000+0  00000+0 0  9994
2 40107   0.0211  61.2428 0001685 195.1517 304.9087  1.00270596 92967
ASIASAT 6               
1 40141U 14052A   23348.58328260 -.00000341  00000+0  00000+0 0  9993
2 40141   0.0303 285.8980 0000675  11.9397 115.0495  1.00270067 33886
OPTUS 10                
1 40146U 14054A   23348.59603249 -.00000126  00000+0  00000+0 0  9995
2 40146   0.0967 249.7504 0003402 352.8590 210.9844  1.00270319 33851
MEASAT-3B               
1 40147U 14054B   23348.52155694 -.00000221  00000+0  00000+0 0  9991
2 40147   0.0483  48.2059 0001525 282.2195  31.7708  1.00271876 33737
LUCH (OLYMP-K 1)        
1 40258U 14058A   23348.46928352 -.00000121  00000+0  00000+0 0  9999
2 40258   0.0459 102.3180 0000708  85.5118  45.9183  1.00266630 31814
HIMAWARI-8              
1 40267U 14060A   23348.59311881 -.00000255  00000+0  00000+0 0  9997
2 40267   0.0130 295.4163 0000664   5.3297 136.4224  1.00269979 33570
